STARLINK-34235          
1 64760U 25147F   25333.31345484  .00027091  00000+0  92314-3 0  9990
2 64760  53.1613 348.9999 0001787  85.1759 274.9446 15.30211615 23425
STARLINK-34635          
1 64761U 25147G   25333.75483005  .00020225  00000+0  69293-3 0  9993
2 64761  53.1608 346.7763 0002103  92.4405 267.6837 15.30208448 23453
STARLINK-34638          
1 64762U 25147H   25334.03719291  .00033718  00000+0  11446-2 0  9992
2 64762  53.1603 345.6929 0001896  88.7782 271.3436 15.30221551 23496
STARLINK-34534          
1 64763U 25147J   25334.04458255  .00028943  00000+0  98379-3 0  9999
2 64763  53.1596 345.7326 0001546  90.5026 269.6152 15.30257448 23493
STARLINK-34261          
1 64764U 25147K   25334.03402721  .00034613  00000+0  11748-2 0  9991
2 64764  53.1608 345.6707 0001836  92.5888 267.5323 15.30214514 23539
STARLINK-34566          
1 64765U 25147L   25334.15199182  .00030037  00000+0  10216-2 0  9994
2 64765  53.1596 344.9841 0001431  92.6368 267.4797 15.30218880 23514
STARLINK-34645          
1 64766U 25147M   25334.06357240  .00028993  00000+0  98670-3 0  9995
2 64766  53.1592 345.8556 0001541 103.4967 256.6206 15.30216677 23496
STARLINK-34639          
1 64767U 25147N   25333.75905022  .00021165  00000+0  72433-3 0  9991
2 64767  53.1610 346.7972 0001759  82.4975 277.6225 15.30215598 23402
STARLINK-34609          
1 64768U 25147P   25334.05084823  .00049434  00000+0  12359-2 0  9992
2 64768  53.1607 338.6808 0002614  94.2310 265.8994 15.39664692 23596
STARLINK-34246          
1 64769U 25147Q   25334.02242065  .00027481  00000+0  93608-3 0  9999
2 64769  53.1621 345.6015 0001974  84.2757 275.8469 15.30215203 23491
STARLINK-34618          
1 64770U 25147R   25334.02558441  .00026549  00000+0  90491-3 0  9990
2 64770  53.1604 345.6204 0001381  81.6036 278.5121 15.30213560 23429
STARLINK-34541          
1 64771U 25147S   25334.07084720  .00038056  00000+0  12895-2 0  9997
2 64771  53.1585 345.1914 0001506 101.5547 258.5623 15.30223669 23436
STARLINK-34652          
1 64772U 25147T   25334.06979294  .00049577  00000+0  16731-2 0  9999
2 64772  53.1574 345.1836 0001145  97.0783 263.0348 15.30233415 23501
STARLINK-34612          
1 64773U 25147U   25334.07506816  .00025252  00000+0  86142-3 0  9995
2 64773  53.1588 345.2143 0001429  98.0208 262.0955 15.30214263 23500
STARLINK-34621          
1 64774U 25147V   25333.27346681  .00016241  00000+0  55921-3 0  9998
2 64774  53.1598 349.4544 0001312  90.5383 269.5768 15.30203843 23309
STARLINK-34657          
1 64775U 25147W   25334.04774661  .00042185  00000+0  14275-2 0  9990
2 64775  53.1606 345.7518 0001172  75.1189 284.9942 15.30219946 23493
