[{"OBJECT_NAME":"STARLINK-34235","OBJECT_ID":"2025-147F","EPOCH":"2025-11-29T07:31:22.498176","MEAN_MOTION":15.30211615,"ECCENTRICITY":0.00017879,"INCLINATION":53.1613,"RA_OF_ASC_NODE":348.9999,"ARG_OF_PERICENTER":85.1759,"MEAN_ANOMALY":274.9446,"EPHEMERIS_TYPE":0,"CLASSIFICATION_TYPE":"U","NORAD_CAT_ID":64760,"ELEMENT_SET_NO":999,"REV_AT_EPOCH":2342,"BSTAR":0.00092313893,"MEAN_MOTION_DOT":0.00027091,"MEAN_MOTION_DDOT":0},{"OBJECT_NAME":"STARLINK-34635","OBJECT_ID":"2025-147G","EPOCH":"2025-11-29T18:06:57.316320","MEAN_MOTION":15.30208448,"ECCENTRICITY":0.0002103,"INCLINATION":53.1608,"RA_OF_ASC_NODE":346.7763,"ARG_OF_PERICENTER":92.4405,"MEAN_ANOMALY":267.6837,"EPHEMERIS_TYPE":0,"CLASSIFICATION_TYPE":"U","NORAD_CAT_ID":64761,"ELEMENT_SET_NO":999,"REV_AT_EPOCH":2345,"BSTAR":0.00069293,"MEAN_MOTION_DOT":0.00020225,"MEAN_MOTION_DDOT":0},{"OBJECT_NAME":"STARLINK-34638","OBJECT_ID":"2025-147H","EPOCH":"2025-11-30T00:53:33.467424","MEAN_MOTION":15.30221551,"ECCENTRICITY":0.0001896,"INCLINATION":53.1603,"RA_OF_ASC_NODE":345.6929,"ARG_OF_PERICENTER":88.7782,"MEAN_ANOMALY":271.3436,"EPHEMERIS_TYPE":0,"CLASSIFICATION_TYPE":"U","NORAD_CAT_ID":64762,"ELEMENT_SET_NO":999,"REV_AT_EPOCH":2349,"BSTAR":0.0011446,"MEAN_MOTION_DOT":0.00033718,"MEAN_MOTION_DDOT":0},{"OBJECT_NAME":"STARLINK-34534","OBJECT_ID":"2025-147J","EPOCH":"2025-11-30T01:04:11.932320","MEAN_MOTION":15.30257448,"ECCENTRICITY":0.0001546,"INCLINATION":53.1596,"RA_OF_ASC_NODE":345.7326,"ARG_OF_PERICENTER":90.5026,"MEAN_ANOMALY":269.6152,"EPHEMERIS_TYPE":0,"CLASSIFICATION_TYPE":"U","NORAD_CAT_ID":64763,"ELEMENT_SET_NO":999,"REV_AT_EPOCH":2349,"BSTAR":0.00098379,"MEAN_MOTION_DOT":0.00028943,"MEAN_MOTION_DDOT":0},{"OBJECT_NAME":"STARLINK-34261","OBJECT_ID":"2025-147K","EPOCH":"2025-11-30T00:48:59.950944","MEAN_MOTION":15.30214514,"ECCENTRICITY":0.0001836,"INCLINATION":53.1608,"RA_OF_ASC_NODE":345.6707,"ARG_OF_PERICENTER":92.5888,"MEAN_ANOMALY":267.5323,"EPHEMERIS_TYPE":0,"CLASSIFICATION_TYPE":"U","NORAD_CAT_ID":64764,"ELEMENT_SET_NO":999,"REV_AT_EPOCH":2353,"BSTAR":0.0011748,"MEAN_MOTION_DOT":0.00034613,"MEAN_MOTION_DDOT":0},{"OBJECT_NAME":"STARLINK-34566","OBJECT_ID":"2025-147L","EPOCH":"2025-11-30T03:38:52.093248","MEAN_MOTION":15.3021888,"ECCENTRICITY":0.0001431,"INCLINATION":53.1596,"RA_OF_ASC_NODE":344.9841,"ARG_OF_PERICENTER":92.6368,"MEAN_ANOMALY":267.4797,"EPHEMERIS_TYPE":0,"CLASSIFICATION_TYPE":"U","NORAD_CAT_ID":64765,"ELEMENT_SET_NO":999,"REV_AT_EPOCH":2351,"BSTAR":0.0010216,"MEAN_MOTION_DOT":0.00030037,"MEAN_MOTION_DDOT":0},{"OBJECT_NAME":"STARLINK-34645","OBJECT_ID":"2025-147M","EPOCH":"2025-11-30T01:31:32.655360","MEAN_MOTION":15.30216677,"ECCENTRICITY":0.0001541,"INCLINATION":53.1592,"RA_OF_ASC_NODE":345.8556,"ARG_OF_PERICENTER":103.4967,"MEAN_ANOMALY":256.6206,"EPHEMERIS_TYPE":0,"CLASSIFICATION_TYPE":"U","NORAD_CAT_ID":64766,"ELEMENT_SET_NO":999,"REV_AT_EPOCH":2349,"BSTAR":0.0009867,"MEAN_MOTION_DOT":0.00028993,"MEAN_MOTION_DDOT":0},{"OBJECT_NAME":"STARLINK-34639","OBJECT_ID":"2025-147N","EPOCH":"2025-11-29T18:13:01.939008","MEAN_MOTION":15.30215598,"ECCENTRICITY":0.0001759,"INCLINATION":53.161,"RA_OF_ASC_NODE":346.7972,"ARG_OF_PERICENTER":82.4975,"MEAN_ANOMALY":277.6225,"EPHEMERIS_TYPE":0,"CLASSIFICATION_TYPE":"U","NORAD_CAT_ID":64767,"ELEMENT_SET_NO":999,"REV_AT_EPOCH":2340,"BSTAR":0.00072433,"MEAN_MOTION_DOT":0.00021165,"MEAN_MOTION_DDOT":0},{"OBJECT_NAME":"STARLINK-34609","OBJECT_ID":"2025-147P","EPOCH":"2025-11-30T01:13:13.287072","MEAN_MOTION":15.39664692,"ECCENTRICITY":0.0002614,"INCLINATION":53.1607,"RA_OF_ASC_NODE":338.6808,"ARG_OF_PERICENTER":94.231,"MEAN_ANOMALY":265.8994,"EPHEMERIS_TYPE":0,"CLASSIFICATION_TYPE":"U","NORAD_CAT_ID":64768,"ELEMENT_SET_NO":999,"REV_AT_EPOCH":2359,"BSTAR":0.0012359,"MEAN_MOTION_DOT":0.00049434,"MEAN_MOTION_DDOT":0},{"OBJECT_NAME":"STARLINK-34246","OBJECT_ID":"2025-147Q","EPOCH":"2025-11-30T00:32:17.144160","MEAN_MOTION":15.30215203,"ECCENTRICITY":0.0001974,"INCLINATION":53.1621,"RA_OF_ASC_NODE":345.6015,"ARG_OF_PERICENTER":84.2757,"MEAN_ANOMALY":275.8469,"EPHEMERIS_TYPE":0,"CLASSIFICATION_TYPE":"U","NORAD_CAT_ID":64769,"ELEMENT_SET_NO":999,"REV_AT_EPOCH":2349,"BSTAR":0.00093608,"MEAN_MOTION_DOT":0.00027481,"MEAN_MOTION_DDOT":0},{"OBJECT_NAME":"STARLINK-34618","OBJECT_ID":"2025-147R","EPOCH":"2025-11-30T00:36:50.493024","MEAN_MOTION":15.3021356,"ECCENTRICITY":0.0001381,"INCLINATION":53.1604,"RA_OF_ASC_NODE":345.6204,"ARG_OF_PERICENTER":81.6036,"MEAN_ANOMALY":278.5121,"EPHEMERIS_TYPE":0,"CLASSIFICATION_TYPE":"U","NORAD_CAT_ID":64770,"ELEMENT_SET_NO":999,"REV_AT_EPOCH":2342,"BSTAR":0.00090491,"MEAN_MOTION_DOT":0.00026549,"MEAN_MOTION_DDOT":0},{"OBJECT_NAME":"STARLINK-34541","OBJECT_ID":"2025-147S","EPOCH":"2025-11-30T01:42:01.198080","MEAN_MOTION":15.30223669,"ECCENTRICITY":0.0001506,"INCLINATION":53.1585,"RA_OF_ASC_NODE":345.1914,"ARG_OF_PERICENTER":101.5547,"MEAN_ANOMALY":258.5623,"EPHEMERIS_TYPE":0,"CLASSIFICATION_TYPE":"U","NORAD_CAT_ID":64771,"ELEMENT_SET_NO":999,"REV_AT_EPOCH":2343,"BSTAR":0.0012895,"MEAN_MOTION_DOT":0.00038056,"MEAN_MOTION_DDOT":0},{"OBJECT_NAME":"STARLINK-34652","OBJECT_ID":"2025-147T","EPOCH":"2025-11-30T01:40:30.110016","MEAN_MOTION":15.30233415,"ECCENTRICITY":0.0001145,"INCLINATION":53.1574,"RA_OF_ASC_NODE":345.1836,"ARG_OF_PERICENTER":97.0783,"MEAN_ANOMALY":263.0348,"EPHEMERIS_TYPE":0,"CLASSIFICATION_TYPE":"U","NORAD_CAT_ID":64772,"ELEMENT_SET_NO":999,"REV_AT_EPOCH":2350,"BSTAR":0.0016731,"MEAN_MOTION_DOT":0.00049577,"MEAN_MOTION_DDOT":0},{"OBJECT_NAME":"STARLINK-34612","OBJECT_ID":"2025-147U","EPOCH":"2025-11-30T01:48:05.889024","MEAN_MOTION":15.30214263,"ECCENTRICITY":0.0001429,"INCLINATION":53.1588,"RA_OF_ASC_NODE":345.2143,"ARG_OF_PERICENTER":98.0208,"MEAN_ANOMALY":262.0955,"EPHEMERIS_TYPE":0,"CLASSIFICATION_TYPE":"U","NORAD_CAT_ID":64773,"ELEMENT_SET_NO":999,"REV_AT_EPOCH":2350,"BSTAR":0.00086142,"MEAN_MOTION_DOT":0.00025252,"MEAN_MOTION_DDOT":0},{"OBJECT_NAME":"STARLINK-34621","OBJECT_ID":"2025-147V","EPOCH":"2025-11-29T06:33:47.532384","MEAN_MOTION":15.30203843,"ECCENTRICITY":0.0001312,"INCLINATION":53.1598,"RA_OF_ASC_NODE":349.4544,"ARG_OF_PERICENTER":90.5383,"MEAN_ANOMALY":269.5768,"EPHEMERIS_TYPE":0,"CLASSIFICATION_TYPE":"U","NORAD_CAT_ID":64774,"ELEMENT_SET_NO":999,"REV_AT_EPOCH":2330,"BSTAR":0.00055920963,"MEAN_MOTION_DOT":0.00016241,"MEAN_MOTION_DDOT":0},{"OBJECT_NAME":"STARLINK-34657","OBJECT_ID":"2025-147W","EPOCH":"2025-11-30T01:08:45.307104","MEAN_MOTION":15.30219946,"ECCENTRICITY":0.0001172,"INCLINATION":53.1606,"RA_OF_ASC_NODE":345.7518,"ARG_OF_PERICENTER":75.1189,"MEAN_ANOMALY":284.9942,"EPHEMERIS_TYPE":0,"CLASSIFICATION_TYPE":"U","NORAD_CAT_ID":64775,"ELEMENT_SET_NO":999,"REV_AT_EPOCH":2349,"BSTAR":0.0014275,"MEAN_MOTION_DOT":0.00042185,"MEAN_MOTION_DDOT":0}]
